satname,norad_id,inclination_deg,eccentricity,mean_motion_rev_per_day,perigee_km,apogee_km,l1,l2
STARLINK-1008,44714,53.0518,0.0001374,15.06396618,546.2703789845118,548.1734676166343,1 44714U 19074B   25285.61865600 -.00001269  00000+0 -66313-4 0  9997,2 44714  53.0518 131.3343 0001374  91.1043 269.0104 15.06396618326430
STARLINK-1010,44716,53.0468,0.0002851,15.87188624,308.2623503533214,312.07602254083304,1 44716U 19074D   25285.66668981  .00267680  00000+0  97637-3 0  9998,2 44716  53.0468  68.2420 0002851  90.3653 245.6789 15.87188624  5965
STARLINK-1011,44717,53.052,0.0004788,15.7640822,337.4099670511878,343.8438553725646,1 44717U 19074E   25285.66668981  .00180980  00000+0  11012-2 0  9998,2 44717  53.0520 123.6969 0004788 149.4276 269.7852 15.76408220  5982
STARLINK-1012,44718,53.0526,0.0001605,15.06384912,546.1462750056389,548.3693267367189,1 44718U 19074F   25285.59654140 -.00004705  00000+0 -29731-3 0  9993,2 44718  53.0526 131.4352 0001605  96.7565 263.3606 15.06384912326428
STARLINK-1017,44723,53.0519,0.0005033,15.13001384,523.5774834172298,530.528247535819,1 44723U 19074L   25285.26925343  .00045648  00000+0  25558-2 0  9990,2 44723  53.0519 130.5150 0005033 113.0694 247.0829 15.13001384326419
STARLINK-1019,44724,53.053,0.000172,15.06399657,546.0214490512963,548.4037693168557,1 44724U 19074M   25285.59285013 -.00000387  00000+0 -71004-5 0  9993,2 44724  53.0530 131.4535 0001720  90.5688 269.5498 15.06399657326428
STARLINK-1020,44725,53.0502,0.0001857,15.06408631,545.8990729777188,548.4711376076248,1 44725U 19074N   25285.33299452  .00003103  00000+0  22706-3 0  9998,2 44725  53.0502 152.6174 0001857  79.4009 280.7189 15.06408631326106
STARLINK-1029,44734,53.0476,0.0005339,16.1068361,241.4325565984309,248.50470879302338,1 44734U 19074X   25285.53476432  .00938026  52278-3  93188-3 0  9996,2 44734  53.0476 343.8587 0005339  15.8777 344.2423 16.10683610328469
STARLINK-1031,44736,53.0512,0.0009521,15.42616219,431.90134227337603,444.8813755744377,1 44736U 19074Z   25285.58513656  .00124182  00000+0  27706-2 0  9997,2 44736  53.0512 125.9951 0009521 124.0436 236.1474 15.42616219326512
STARLINK-1036,44741,53.054,0.0001965,15.06409716,545.8209548174282,548.5426050979513,1 44741U 19074AE  25285.36247936  .00001241  00000+0  10219-3 0  9996,2 44741  53.0540 152.4875 0001965  88.8392 271.2822 15.06409716326116
STARLINK-1039,44744,53.0506,0.0007671,15.11229142,527.1492485829076,537.7514717108461,1 44744U 19074AH  25285.10320226  .00032682  00000+0  19299-2 0  9994,2 44744  53.0506 172.3747 0007671  84.2816 275.9049 15.11229142325818
STARLINK-1042,44747,53.0471,0.0003332,15.42073584,437.7185616872357,442.2621617610894,1 44747U 19074AL  25285.60803579  .00026605  00000+0  62037-3 0  9996,2 44747  53.0471  81.1037 0003332  78.0172 282.1206 15.42073584327163
STARLINK-1043,44748,53.053,0.0002045,15.06414375,545.7512762135548,548.5837257544572,1 44748U 19074AM  25285.40118479  .00003225  00000+0  23519-3 0  9998,2 44748  53.0530 172.3136 0002045  81.8304 278.2917 15.06414375325847
STARLINK-1046,44751,53.0518,0.0001751,15.06404787,545.9842605480562,548.4095124751129,1 44751U 19074AQ  25285.41593849  .00006438  00000+0  45066-3 0  9991,2 44751  53.0518 172.2468 0001751  86.1396 273.9793 15.06404787325846
STARLINK-1047,44752,53.0703,0.0005161,15.28682942,476.2091220614129,483.2878314505215,1 44752U 19074AR  25285.60682210  .00013828  00000+0  50068-3 0  9993,2 44752  53.0703 115.7800 0005161 114.5970 245.5567 15.28682942326668
STARLINK-1048,44753,53.0515,0.0001353,15.0640347,546.2639246874951,548.1379211294334,1 44753U 19074AS  25285.57442535 -.00000118  00000+0  10998-4 0  9992,2 44753  53.0515 131.5337 0001353  89.5393 270.5752 15.06403470326421
STARLINK-1053,44758,53.0404,9.45e-05,15.57885327,393.13834148789465,394.4182334772295,1 44758U 19074AX  25285.56766688  .00064104  00000+0  84353-3 0  9993,2 44758  53.0404  97.0039 0000945 148.6538 211.4530 15.57885327326926
STARLINK-1054,44759,53.04,0.0005671,15.77106962,334.8331667074399,342.4513377353105,1 44759U 19074AY  25285.66668981  .00250936  00000+0  14665-2 0  9990,2 44759  53.0400 123.8789 0005671 118.1179 207.0087 15.77106962  5977
STARLINK-1056,44761,53.0387,0.0003616,15.89511609,301.235065767205,306.06733499371876,1 44761U 19074BA  25285.66668981  .00298271  00000+0  96553-3 0  9994,2 44761  53.0387 111.3898 0003616 120.9424 297.9171 15.89511609  6017
STARLINK-1060,44765,53.055,8.31e-05,15.59332896,389.024211703776,390.1490073676805,1 44765U 19074BE  25285.66668981  .00063460  00000+0  79088-3 0  9992,2 44765  53.0550 142.8696 0000831  98.9771 203.4037 15.59332896  5695
STARLINK-1063,44768,53.0534,0.0001425,15.06399639,546.2258020243344,548.1995266786744,1 44768U 19074BH  25285.67025518 -.00001243  00000+0 -64587-4 0  9991,2 44768  53.0534 171.1052 0001425  93.0629 267.0523 15.06399639325892
STARLINK-1067,44771,53.0517,0.0001669,15.06412153,546.0184765362374,548.330145451846,1 44771U 19074BL  25285.06207335 -.00004141  00000+0 -25915-3 0  9998,2 44771  53.0517 173.8365 0001669  86.0440 274.0740 15.06412153325791
STARLINK-1068,44772,53.0503,0.0001509,15.06394357,546.1838152673126,548.2738906817403,1 44772U 19074BM  25285.58363845  .00002503  00000+0  18687-3 0  9991,2 44772  53.0503 151.4929 0001509  88.2198 271.8964 15.06394357326140
STARLINK-1112,44925,53.0509,0.0001882,15.50384853,414.32297902584196,416.8801422200604,1 44925U 20001M   25285.66668981  .00134443  00000+0  22950-2 0  9997,2 44925  53.0509 255.1151 0001882  92.5432 254.7072 15.50384853  5815
STARLINK-1114,44927,53.054,0.0001516,15.06401984,546.1555953511452,548.2553591902533,1 44927U 20001P   25285.29061182  .00002963  00000+0  21773-3 0  9992,2 44927  53.0540 292.8104 0001516  91.0273 269.0890 15.06401984317481
STARLINK-1123,44930,53.0537,0.0001449,15.06414118,546.1648119032516,548.1717653758997,1 44930U 20001S   25285.30534826  .00006130  00000+0  42988-3 0  9999,2 44930  53.0537 292.7427 0001449  78.0018 282.1133 15.06414118317484
STARLINK-1144,44933,53.0451,0.0012795,15.55452372,392.16426004597724,409.51165696479256,1 44933U 20001V   25285.66668981  .00033764  00000+0  48985-3 0  9997,2 44933  53.0451 232.8361 0012795  28.3516 341.9552 15.55452372  5932
STARLINK-1091,44940,53.0389,0.0002883,15.87822892,306.4602126605987,310.31566293973447,1 44940U 20001AC  25285.66668981  .00403340  00000+0  14028-2 0  9996,2 44940  53.0389 213.9282 0002883 101.3117 181.0654 15.87822892  5847
STARLINK-1094,44941,53.0545,0.0001273,15.0640505,546.3144855577066,548.0776753599921,1 44941U 20001AD  25285.38458888  .00001055  00000+0  89718-4 0  9996,2 44941  53.0545 272.3866 0001273  84.9808 275.1326 15.06405050317777
STARLINK-1096,44942,52.9912,0.0004514,15.8252435,320.2796200553821,326.3296815777394,1 44942U 20001AE  25285.66668981  .00212913  00000+0  97745-3 0  9990,2 44942  52.9912  40.8398 0004514 333.2395  11.7199 15.82524350  5791
STARLINK-1122,44949,53.0547,0.0001573,15.06399106,546.1249401617097,548.3036556800353,1 44949U 20001AM  25285.27402292  .00001385  00000+0  11184-3 0  9997,2 44949  53.0547 272.8802 0001573  97.0880 263.0288 15.06399106317755
STARLINK-1080,44961,53.0535,0.0001616,15.06395788,546.1053287286277,548.3436055548073,1 44961U 20001AZ  25285.60391897  .00000200  00000+0  32300-4 0  9995,2 44961  53.0535 251.4015 0001616  87.5372 272.5802 15.06395788318090
STARLINK-1090,44968,53.0552,0.0001349,15.06404927,546.2622299506447,548.1306849174598,1 44968U 20001BG  25285.60758747  .00001131  00000+0  94769-4 0  9994,2 44968  53.0552 251.3874 0001349  91.2263 268.8881 15.06404927318093
STARLINK-1107,44972,53.0095,0.0007333,15.61726873,377.710963241796,387.6263608257359,1 44972U 20001BL  25285.66668981  .00189562  00000+0  21085-2 0  9999,2 44972  53.0095 173.5619 0007333 145.5981 318.7626 15.61726873  5892
STARLINK-1132,45044,53.0555,0.0001408,15.06410394,546.2046174168127,548.1547866000992,1 45044U 20006A   25285.10261258  .00002387  00000+0  17906-3 0  9997,2 45044  53.0555 213.6527 0001408  94.3978 265.7172 15.06410394314349
STARLINK-1131,45047,53.0546,0.0001439,15.06417874,546.1602274697207,548.153327018812,1 45047U 20006D   25285.27775644  .00003373  00000+0  24514-3 0  9996,2 45047  53.0546 233.4051 0001439  93.6344 266.4810 15.06417874314085
STARLINK-1134,45048,53.037,0.0011388,15.25694416,480.88107189038783,496.5209821807648,1 45048U 20006E   25285.10348607  .00013986  00000+0  55326-3 0  9990,2 45048  53.0370 214.7558 0011388  79.2820 280.9458 15.25694416314335
STARLINK-1156,45054,53.053,0.0001888,15.06412337,545.8662483991357,548.4812457372291,1 45054U 20006L   25285.57994478  .00000594  00000+0  58780-4 0  9990,2 45054  53.0530 231.5099 0001888  93.3934 266.7271 15.06412337314136
STARLINK-1159,45057,53.0535,0.000238,15.06409835,545.5331894609471,548.8296410266021,1 45057U 20006P   25285.59469472 -.00000057  00000+0  15093-4 0  9991,2 45057  53.0535 231.4430 0002380  86.7614 273.3647 15.06409835314142
STARLINK-1166,45060,53.0532,0.0001451,15.06437948,546.090404025058,548.1001064255233,1 45060U 20006S   25285.27400851  .00013996  00000+0  95565-3 0  9992,2 45060  53.0532 232.8841 0001451  98.4192 261.6962 15.06437948314093
STARLINK-1169,45061,53.0539,0.0001578,15.06422768,546.0489691851608,548.2345871675525,1 45061U 20006T   25285.54676739  .00002685  00000+0  19897-3 0  9990,2 45061  53.0539 231.6611 0001578  92.8631 267.2539 15.06422768314130
STARLINK-1171,45062,53.0541,0.0001406,15.09830275,535.7459403397943,537.6903976133108,1 45062U 20006U   25285.66668981  .01053366  00000+0  59605-1 0  9996,2 45062  53.0541 231.0960 0001406  89.8611 291.6255 15.09830275  5816
STARLINK-1133,45064,53.0538,0.0001471,15.06447604,546.0469650649266,548.0843596881969,1 45064U 20006W   25285.21317993  .00011463  00000+0  78618-3 0  9991,2 45064  53.0538 213.1517 0001471  83.3178 276.7979 15.06447604314369
